[{"OBJECT_NAME":"LEMUR-2-JK0903EM1407","OBJECT_ID":"2023-174CJ","EPOCH":"2026-03-03T04:50:56.368320","MEAN_MOTION":15.46265948,"ECCENTRICITY":0.0006257,"INCLINATION":97.3932,"RA_OF_ASC_NODE":150.1501,"ARG_OF_PERICENTER":136.8848,"MEAN_ANOMALY":223.2893,"EPHEMERIS_TYPE":0,"CLASSIFICATION_TYPE":"U","NORAD_CAT_ID":58336,"ELEMENT_SET_NO":999,"REV_AT_EPOCH":12932,"BSTAR":0.00061009,"MEAN_MOTION_DOT":0.00030036,"MEAN_MOTION_DDOT":0},{"OBJECT_NAME":"LEMUR-2-MJR092620","OBJECT_ID":"2023-174CN","EPOCH":"2026-03-02T19:46:20.749728","MEAN_MOTION":15.41908911,"ECCENTRICITY":0.0008011,"INCLINATION":97.4,"RA_OF_ASC_NODE":150.1573,"ARG_OF_PERICENTER":136.1466,"MEAN_ANOMALY":224.0418,"EPHEMERIS_TYPE":0,"CLASSIFICATION_TYPE":"U","NORAD_CAT_ID":58340,"ELEMENT_SET_NO":999,"REV_AT_EPOCH":12924,"BSTAR":0.00033526,"MEAN_MOTION_DOT":0.00014184,"MEAN_MOTION_DDOT":0},{"OBJECT_NAME":"LEMUR-2-NIMBUS2000","OBJECT_ID":"2024-022A","EPOCH":"2026-03-03T02:44:39.165216","MEAN_MOTION":15.36470803,"ECCENTRICITY":0.0010375,"INCLINATION":97.4231,"RA_OF_ASC_NODE":270.9679,"ARG_OF_PERICENTER":134.7328,"MEAN_ANOMALY":225.4762,"EPHEMERIS_TYPE":0,"CLASSIFICATION_TYPE":"U","NORAD_CAT_ID":58899,"ELEMENT_SET_NO":999,"REV_AT_EPOCH":11596,"BSTAR":0.00057009,"MEAN_MOTION_DOT":0.00020268,"MEAN_MOTION_DDOT":0},{"OBJECT_NAME":"LEMUR-2-VALHALLA","OBJECT_ID":"2024-022B","EPOCH":"2026-03-03T03:46:57.783936","MEAN_MOTION":15.36236157,"ECCENTRICITY":0.0010984,"INCLINATION":97.423,"RA_OF_ASC_NODE":271.0476,"ARG_OF_PERICENTER":130.4483,"MEAN_ANOMALY":229.7721,"EPHEMERIS_TYPE":0,"CLASSIFICATION_TYPE":"U","NORAD_CAT_ID":58900,"ELEMENT_SET_NO":999,"REV_AT_EPOCH":11597,"BSTAR":0.00055718,"MEAN_MOTION_DOT":0.00019661,"MEAN_MOTION_DDOT":0},{"OBJECT_NAME":"LEMUR-2-OBA-NI-JESU","OBJECT_ID":"2024-022D","EPOCH":"2026-03-03T03:27:15.794784","MEAN_MOTION":15.63873606,"ECCENTRICITY":0.000516,"INCLINATION":97.4069,"RA_OF_ASC_NODE":279.873,"ARG_OF_PERICENTER":89.1737,"MEAN_ANOMALY":271.0113,"EPHEMERIS_TYPE":0,"CLASSIFICATION_TYPE":"U","NORAD_CAT_ID":58902,"ELEMENT_SET_NO":999,"REV_AT_EPOCH":11657,"BSTAR":0.0011455,"MEAN_MOTION_DOT":0.00108618,"MEAN_MOTION_DDOT":0},{"OBJECT_NAME":"LEMUR-2-CAEL","OBJECT_ID":"2024-022E","EPOCH":"2026-03-03T02:52:53.435424","MEAN_MOTION":15.37369154,"ECCENTRICITY":0.0009404,"INCLINATION":97.4216,"RA_OF_ASC_NODE":271.7732,"ARG_OF_PERICENTER":114.9532,"MEAN_ANOMALY":245.269,"EPHEMERIS_TYPE":0,"CLASSIFICATION_TYPE":"U","NORAD_CAT_ID":58903,"ELEMENT_SET_NO":999,"REV_AT_EPOCH":11602,"BSTAR":0.00056296,"MEAN_MOTION_DOT":0.00020596,"MEAN_MOTION_DDOT":0},{"OBJECT_NAME":"LEMUR-2-JOHNNYTRUONG","OBJECT_ID":"2024-043BA","EPOCH":"2026-03-02T22:48:38.726208","MEAN_MOTION":15.52505666,"ECCENTRICITY":0.0005338,"INCLINATION":97.5245,"RA_OF_ASC_NODE":207.7909,"ARG_OF_PERICENTER":207.683,"MEAN_ANOMALY":152.4138,"EPHEMERIS_TYPE":0,"CLASSIFICATION_TYPE":"U","NORAD_CAT_ID":59146,"ELEMENT_SET_NO":999,"REV_AT_EPOCH":11151,"BSTAR":0.00067859,"MEAN_MOTION_DOT":0.00041646,"MEAN_MOTION_DDOT":0},{"OBJECT_NAME":"LEMUR-2-TOMATOKECHUP","OBJECT_ID":"2024-149D","EPOCH":"2026-03-03T04:01:28.377120","MEAN_MOTION":15.33548678,"ECCENTRICITY":8.98e-5,"INCLINATION":97.3859,"RA_OF_ASC_NODE":144.1124,"ARG_OF_PERICENTER":205.9651,"MEAN_ANOMALY":154.1547,"EPHEMERIS_TYPE":0,"CLASSIFICATION_TYPE":"U","NORAD_CAT_ID":60471,"ELEMENT_SET_NO":999,"REV_AT_EPOCH":8590,"BSTAR":0.00045209,"MEAN_MOTION_DOT":0.00014594,"MEAN_MOTION_DDOT":0},{"OBJECT_NAME":"LEMUR-2-STELLA","OBJECT_ID":"2024-149BT","EPOCH":"2026-03-03T03:55:14.386080","MEAN_MOTION":15.09245004,"ECCENTRICITY":0.0001558,"INCLINATION":97.6791,"RA_OF_ASC_NODE":144.3415,"ARG_OF_PERICENTER":96.3973,"MEAN_ANOMALY":263.7433,"EPHEMERIS_TYPE":0,"CLASSIFICATION_TYPE":"U","NORAD_CAT_ID":60533,"ELEMENT_SET_NO":999,"REV_AT_EPOCH":8449,"BSTAR":0.00095045,"MEAN_MOTION_DOT":0.00015083,"MEAN_MOTION_DDOT":0},{"OBJECT_NAME":"LEMUR-2-MARHISYAM","OBJECT_ID":"2024-149BW","EPOCH":"2026-03-03T04:12:18.020448","MEAN_MOTION":15.08795894,"ECCENTRICITY":0.0003242,"INCLINATION":97.693,"RA_OF_ASC_NODE":144.6862,"ARG_OF_PERICENTER":123.1448,"MEAN_ANOMALY":237.0091,"EPHEMERIS_TYPE":0,"CLASSIFICATION_TYPE":"U","NORAD_CAT_ID":60536,"ELEMENT_SET_NO":999,"REV_AT_EPOCH":8448,"BSTAR":0.00091172,"MEAN_MOTION_DOT":0.00014289,"MEAN_MOTION_DDOT":0},{"OBJECT_NAME":"LEMUR-2-AHMED-ASRAR","OBJECT_ID":"2024-149DN","EPOCH":"2026-03-03T04:09:43.607232","MEAN_MOTION":15.10163204,"ECCENTRICITY":0.0002173,"INCLINATION":97.7046,"RA_OF_ASC_NODE":146.387,"ARG_OF_PERICENTER":39.9601,"MEAN_ANOMALY":320.1788,"EPHEMERIS_TYPE":0,"CLASSIFICATION_TYPE":"U","NORAD_CAT_ID":60576,"ELEMENT_SET_NO":999,"REV_AT_EPOCH":8455,"BSTAR":0.0008872,"MEAN_MOTION_DOT":0.00014433,"MEAN_MOTION_DDOT":0},{"OBJECT_NAME":"LEMUR-2-LLOYD","OBJECT_ID":"2024-149DP","EPOCH":"2026-03-03T03:39:32.702112","MEAN_MOTION":15.06982357,"ECCENTRICITY":0.0005163,"INCLINATION":97.681,"RA_OF_ASC_NODE":143.3843,"ARG_OF_PERICENTER":140.9787,"MEAN_ANOMALY":219.1814,"EPHEMERIS_TYPE":0,"CLASSIFICATION_TYPE":"U","NORAD_CAT_ID":60577,"ELEMENT_SET_NO":999,"REV_AT_EPOCH":8441,"BSTAR":0.00083701,"MEAN_MOTION_DOT":0.0001248,"MEAN_MOTION_DDOT":0},{"OBJECT_NAME":"LEMUR-2-SQUIRRELCOMM","OBJECT_ID":"2024-149DQ","EPOCH":"2026-03-03T04:21:56.160000","MEAN_MOTION":15.05749366,"ECCENTRICITY":0.0006272,"INCLINATION":97.6759,"RA_OF_ASC_NODE":143.5168,"ARG_OF_PERICENTER":60.7652,"MEAN_ANOMALY":299.4201,"EPHEMERIS_TYPE":0,"CLASSIFICATION_TYPE":"U","NORAD_CAT_ID":60578,"ELEMENT_SET_NO":999,"REV_AT_EPOCH":8444,"BSTAR":0.00063499,"MEAN_MOTION_DOT":9.14e-5,"MEAN_MOTION_DDOT":0},{"OBJECT_NAME":"LEMUR-2-SIERRINI","OBJECT_ID":"2024-149DR","EPOCH":"2026-03-03T04:13:22.912032","MEAN_MOTION":15.08457684,"ECCENTRICITY":0.000612,"INCLINATION":97.6891,"RA_OF_ASC_NODE":144.4811,"ARG_OF_PERICENTER":169.9798,"MEAN_ANOMALY":190.1553,"EPHEMERIS_TYPE":0,"CLASSIFICATION_TYPE":"U","NORAD_CAT_ID":60579,"ELEMENT_SET_NO":999,"REV_AT_EPOCH":8446,"BSTAR":0.000955,"MEAN_MOTION_DOT":0.00014838,"MEAN_MOTION_DDOT":0},{"OBJECT_NAME":"LEMUR-2-WILSON","OBJECT_ID":"2025-009CP","EPOCH":"2026-03-03T03:17:43.311840","MEAN_MOTION":14.94630166,"ECCENTRICITY":0.0003913,"INCLINATION":97.7086,"RA_OF_ASC_NODE":142.4818,"ARG_OF_PERICENTER":50.178,"MEAN_ANOMALY":309.9784,"EPHEMERIS_TYPE":0,"CLASSIFICATION_TYPE":"U","NORAD_CAT_ID":62694,"ELEMENT_SET_NO":999,"REV_AT_EPOCH":6151,"BSTAR":0.00027225,"MEAN_MOTION_DOT":2.893e-5,"MEAN_MOTION_DDOT":0},{"OBJECT_NAME":"LEMUR-2-STAR-FOX","OBJECT_ID":"2025-009CR","EPOCH":"2026-03-03T05:05:22.662240","MEAN_MOTION":15.00715106,"ECCENTRICITY":0.0002154,"INCLINATION":97.7066,"RA_OF_ASC_NODE":144.7103,"ARG_OF_PERICENTER":165.7487,"MEAN_ANOMALY":194.3798,"EPHEMERIS_TYPE":0,"CLASSIFICATION_TYPE":"U","NORAD_CAT_ID":62696,"ELEMENT_SET_NO":999,"REV_AT_EPOCH":6165,"BSTAR":0.00093365,"MEAN_MOTION_DOT":0.00011783,"MEAN_MOTION_DDOT":0}]
