LEMUR-2-JK0903EM1407    
1 58336U 23174CJ  26062.20204130  .00030036  00000+0  61009-3 0  9990
2 58336  97.3932 150.1501 0006257 136.8848 223.2893 15.46265948129327
LEMUR-2-MJR092620       
1 58340U 23174CN  26061.82385127  .00014184  00000+0  33526-3 0  9997
2 58340  97.4000 150.1573 0008011 136.1466 224.0418 15.41908911129249
LEMUR-2-NIMBUS2000      
1 58899U 24022A   26062.11434219  .00020268  00000+0  57009-3 0  9991
2 58899  97.4231 270.9679 0010375 134.7328 225.4762 15.36470803115968
LEMUR-2-VALHALLA        
1 58900U 24022B   26062.15761324  .00019661  00000+0  55718-3 0  9998
2 58900  97.4230 271.0476 0010984 130.4483 229.7721 15.36236157115973
LEMUR-2-OBA-NI-JESU     
1 58902U 24022D   26062.14393281  .00108618  00000+0  11455-2 0  9992
2 58902  97.4069 279.8730 0005160  89.1737 271.0113 15.63873606116574
LEMUR-2-CAEL            
1 58903U 24022E   26062.12006291  .00020596  00000+0  56296-3 0  9994
2 58903  97.4216 271.7732 0009404 114.9532 245.2690 15.37369154116029
LEMUR-2-JOHNNYTRUONG    
1 59146U 24043BA  26061.95044822  .00041646  00000+0  67859-3 0  9995
2 59146  97.5245 207.7909 0005338 207.6830 152.4138 15.52505666111512
LEMUR-2-TOMATOKECHUP    
1 60471U 24149D   26062.16768955  .00014594  00000+0  45209-3 0  9996
2 60471  97.3859 144.1124 0000898 205.9651 154.1547 15.33548678 85900
LEMUR-2-STELLA          
1 60533U 24149BT  26062.16336095  .00015083  00000+0  95045-3 0  9998
2 60533  97.6791 144.3415 0001558  96.3973 263.7433 15.09245004 84499
LEMUR-2-MARHISYAM       
1 60536U 24149BW  26062.17520857  .00014289  00000+0  91172-3 0  9997
2 60536  97.6930 144.6862 0003242 123.1448 237.0091 15.08795894 84483
LEMUR-2-AHMED-ASRAR     
1 60576U 24149DN  26062.17342138  .00014433  00000+0  88720-3 0  9991
2 60576  97.7046 146.3870 0002173  39.9601 320.1788 15.10163204 84553
LEMUR-2-LLOYD           
1 60577U 24149DP  26062.15246183  .00012480  00000+0  83701-3 0  9997
2 60577  97.6810 143.3843 0005163 140.9787 219.1814 15.06982357 84414
LEMUR-2-SQUIRRELCOMM    
1 60578U 24149DQ  26062.18190000  .00009140  00000+0  63499-3 0  9998
2 60578  97.6759 143.5168 0006272  60.7652 299.4201 15.05749366 84445
LEMUR-2-SIERRINI        
1 60579U 24149DR  26062.17595963  .00014838  00000+0  95500-3 0  9993
2 60579  97.6891 144.4811 0006120 169.9798 190.1553 15.08457684 84464
LEMUR-2-WILSON          
1 62694U 25009CP  26062.13730685  .00002893  00000+0  27225-3 0  9994
2 62694  97.7086 142.4818 0003913  50.1780 309.9784 14.94630166 61514
LEMUR-2-STAR-FOX        
1 62696U 25009CR  26062.21206785  .00011783  00000+0  93365-3 0  9990
2 62696  97.7066 144.7103 0002154 165.7487 194.3798 15.00715106 61651
